[Satellite]
VERSION=1.1
NAME=SPOT 5
NICKNAME=SPOT 5
TLE1=1 27421U 02021A   11060.07548852  .00000169  00000-0  10000-3 0    23
TLE2=2 27421  98.7041 135.4671 0001112  80.6010  36.3998 14.20038301457426
